StoreKey,GeographyKey,StoreManager,StoreType,StoreName,StoreDescription,Status,OpenDate,CloseDate,EntityKey,ZipCode,ZipCodeExtension,StorePhone,StoreFax,AddressLine1,AddressLine2,CloseReason,EmployeeCount,SellingAreaSize,LastRemodelDate
1,693,35,Store,Contoso Seattle No.1 Store,Contoso Seattle No.1 Store,On,2004-04-12 00:00:00.000,NULL,635,97001,97001,320-555-0195,320-555-0195,East Queen Anne Big shopping mall,East Queen Anne Big shopping mall,NULL,17,462,2009-06-16 00:00:00.000
2,693,35,Store,Contoso Seattle No.2 Store,Contoso Seattle No.2 Store,On,2004-02-14 00:00:00.000,NULL,636,97001,97002,150-555-0189,150-555-0189,Mino shopping mall,Mino shopping mall,NULL,25,700,2009-06-17 00:00:00.000
3,856,36,Store,Contoso Kennewick Store,Contoso Kennewick Store,On,2004-02-12 00:00:00.000,NULL,934,97001,97003,212-555-0187,212-555-0187,"Kennewick,  Downtown","Kennewick,  Downtown",NULL,26,680,2009-06-18 00:00:00.000
4,424,37,Store,Contoso Bellevue Store,Contoso Bellevue Store,On,2004-03-01 00:00:00.000,NULL,638,97001,97004,612-555-0100,612-555-0100,West Lake Hills shopping mall,West Lake Hills shopping mall,NULL,19,455,2009-06-16 00:00:00.000
5,677,38,Store,Contoso Redmond Store,Contoso Redmond Store,On,2004-04-02 00:00:00.000,NULL,639,97001,97005,612-555-0100,612-555-0100,Downtown shopping mall,Downtown shopping mall,NULL,33,560,2009-06-17 00:00:00.000
6,575,39,Store,Contoso Yakima Store,Contoso Yakima Store,On,2005-05-15 00:00:00.000,NULL,640,97001,97006,168-555-0183,168-555-0183,"Yakima, shopping mall","Yakima, shopping mall",NULL,47,1125,2009-06-16 00:00:00.000
7,838,40,Store,Contoso Granger Store,Contoso Granger Store,On,2004-06-16 00:00:00.000,NULL,641,97001,97007,913-555-0172,913-555-0172,"Granger, WA Downtown shopping mall","Granger, WA Downtown shopping mall",NULL,22,500,2009-06-17 00:00:00.000
8,935,41,Store,Contoso Sunnyside Store,Contoso Sunnyside Store,On,2004-07-02 00:00:00.000,NULL,642,97001,97008,913-555-0172,913-555-0172,"Sunnyside, WA Citycenter","Sunnyside, WA Citycenter",NULL,17,460,2009-06-18 00:00:00.000
9,941,42,Store,Contoso Toppenish Store,Contoso Toppenish Store,On,2004-08-18 00:00:00.000,NULL,643,97001,97009,903-555-0145,903-555-0145,"Toppenish, Citycenter","Toppenish, Citycenter",NULL,25,700,2009-06-16 00:00:00.000
10,947,43,Store,Contoso Wapato Store,Contoso Wapato Store,On,2004-09-19 00:00:00.000,NULL,644,97001,97010,145-555-0130,145-555-0130,"Wapato, Citycenter","Wapato, Citycenter",NULL,25,700,2009-06-17 00:00:00.000
11,813,44,Store,Contoso Cle Elum Store,Contoso Cle Elum Store,On,2004-10-20 00:00:00.000,NULL,645,97001,97011,849-555-0139,849-555-0139,"Cle Elum, Citycenter","Cle Elum, Citycenter",NULL,26,680,2009-06-16 00:00:00.000
12,893,45,Store,Contoso North Bend Store,Contoso North Bend Store,Off,2004-11-21 00:00:00.000,2009-04-12 00:00:00.000,646,97001,97012,206-555-0180,206-555-0180,"North Bend, Citycenter","North Bend, Citycenter",Relocation,19,455,2009-06-17 00:00:00.000
13,930,46,Store,Contoso Snoqualmie Store,Contoso Snoqualmie Store,On,2004-12-22 00:00:00.000,NULL,647,97001,97013,122-555-0189,122-555-0189,"Snoqualmie, Citycenter","Snoqualmie, Citycenter",NULL,33,560,2009-06-18 00:00:00.000
14,825,47,Store,Contoso Fall City Store,Contoso Fall City Store,On,2006-01-23 00:00:00.000,NULL,648,97001,97014,819-555-0175,819-555-0175,"Fall City, Citycenter","Fall City, Citycenter",NULL,47,1125,2009-06-16 00:00:00.000
15,678,48,Store,Contoso Renton Store,Contoso Renton Store,On,2004-02-24 00:00:00.000,NULL,649,97001,97015,424-555-0189,424-555-0189,"Renton,Citycenter","Renton,Citycenter",NULL,22,500,2009-06-17 00:00:00.000
16,627,49,Store,Contoso Everett Store,Contoso Everett Store,On,2004-01-25 00:00:00.000,NULL,650,97001,97016,508-555-0165,508-555-0165,Riverside  Ave Shopping mall,Riverside  Ave,NULL,17,462,2009-06-16 00:00:00.000
17,551,135,Store,Contoso Spokane Store,Contoso Spokane Store,On,2004-03-26 00:00:00.000,NULL,651,97001,97017,984-555-0185,984-555-0185,"Logan Ave  Shopping mall          ","Logan Ave  Shopping mall          ",NULL,25,700,2009-06-17 00:00:00.000
18,944,50,Store,Contoso Veradale Store,Contoso Veradale Store,On,2004-07-27 00:00:00.000,NULL,652,97001,97018,632-555-0129,632-555-0129,"Veradale, Citycenter","Veradale, Citycenter",NULL,26,680,2009-06-18 00:00:00.000
19,812,51,Store,Contoso Cheney Store,Contoso Cheney Store,Off,2004-08-28 00:00:00.000,2009-05-12 00:00:00.000,653,97001,97019,328-555-0150,328-555-0150,"Cheney DownTown Shopping mall    ","Cheney DownTown Shopping mall    ",Store,19,455,2009-06-16 00:00:00.000
20,824,52,Store,Contoso Englewood Store,Contoso Englewood Store,On,2004-09-29 00:00:00.000,NULL,654,87001,87001,435-555-0113,435-555-0113,"Cherry Hills Village Shopping mall               ","Cherry Hills Village Shopping mall               ",NULL,33,560,2009-06-17 00:00:00.000
21,950,66,Store,Contoso Wheat Ridge Store,Contoso Wheat Ridge Store,On,2004-11-02 00:00:00.000,NULL,655,87001,87002,202-555-0151,202-555-0151,"Wheat Ridge, CityCenter              ","Wheat Ridge, CityCenter              ",NULL,47,1125,2009-06-16 00:00:00.000
22,571,54,Store,Contoso Westminster Store,Contoso Westminster Store,On,2004-12-03 00:00:00.000,NULL,656,87001,87003,925-555-0114,925-555-0114,"South Central Shopping mall ","South Central Shopping mall ",NULL,22,500,2009-06-17 00:00:00.000
23,836,55,Store,Contoso Grand Junction Store,Contoso Grand Junction Store,On,2004-01-24 00:00:00.000,NULL,657,87001,87004,913-555-0196,913-555-0196,Grand Junction Downtown,Grand Junction Downtown,NULL,17,460,2009-06-18 00:00:00.000
24,887,56,Store,Contoso New Castle Store,Contoso New Castle Store,On,2004-02-15 00:00:00.000,NULL,658,87001,87005,413-555-0136,413-555-0136,"New Castle CityCenter                 ","New Castle CityCenter                 ",NULL,25,700,2009-06-16 00:00:00.000
25,839,57,Store,Contoso Greeley  No.1 Store,Contoso Greeley  No.1 Store,On,2004-03-16 00:00:00.000,NULL,659,80631,80631,332-555-0150,332-555-0150," W 29th Street, Greeley CityCenter  "," W 29th Street, Greeley CityCenter  ",NULL,25,700,2009-06-17 00:00:00.000
26,867,58,Store,Contoso Loveland Store,Contoso Loveland Store,On,2004-04-17 00:00:00.000,NULL,660,87001,87007,166-555-0162,166-555-0162,"Loveland Downtown          ","Loveland Downtown          ",NULL,26,680,2009-06-16 00:00:00.000
27,859,59,Store,Contoso Lafayette Store,Contoso Lafayette Store,On,2004-05-18 00:00:00.000,NULL,661,87001,87008,113-555-0173,113-555-0173,"Lafayette Downtown               ","Lafayette Downtown               ",NULL,19,455,2009-06-17 00:00:00.000
28,809,60,Store,Contoso Castle Rock Store,Contoso Castle Rock Store,On,2004-06-19 00:00:00.000,NULL,662,87001,87009,115-555-0179,115-555-0179,"Castle Rock Downtown              ","Castle Rock Downtown              ",NULL,33,560,2009-06-18 00:00:00.000
29,927,61,Store,Contoso Sedalia Store,Contoso Sedalia Store,Off,2004-07-20 00:00:00.000,2009-07-12 00:00:00.000,663,87001,87010,147-555-0160,147-555-0160,"N Plum Ave St              ","N Plum Ave St              ",Relocation,47,1125,2009-06-16 00:00:00.000
30,829,62,Store,Contoso Fort Collins Store,Contoso Fort Collins Store,On,2004-08-21 00:00:00.000,NULL,664,87001,87011,656-555-0119,656-555-0119,"Old Town West ST              ","Old Town West ST              ",NULL,22,500,2009-06-17 00:00:00.000
31,839,57,Store,Contoso Greeley No.2 Store,Contoso Greeley No.2 Store,On,2004-09-22 00:00:00.000,NULL,665,80631,80631,138-555-0128,138-555-0128,"Greeley  Downtown Shopping mall           ","Greeley  Downtown Shopping mall           ",NULL,17,462,2009-06-16 00:00:00.000
32,877,63,Store,Contoso Milliken Store,Contoso Milliken Store,On,2004-10-23 00:00:00.000,NULL,666,87001,87013,523-555-0175,523-555-0175,"Milliken Downtown                 ","Milliken Downtown                 ",NULL,25,700,2009-06-17 00:00:00.000
33,799,64,Store,Contoso Berthoud Store,Contoso Berthoud Store,On,2004-11-24 00:00:00.000,NULL,667,87001,87014,668-555-0130,668-555-0130,"Berthoud, CO St          ","Berthoud, CO St          ",NULL,26,680,2009-06-18 00:00:00.000
34,818,65,Store,Contoso Denver No.1 Store,Contoso Denver No.1 Store,On,2004-12-02 00:00:00.000,NULL,668,87001,87015,609-555-0179,609-555-0179,"Coors Field 17th St           ","Coors Field 17th St           ",NULL,26,680,2009-06-16 00:00:00.000
35,818,65,Store,Contoso Denver No.2 Store,Contoso Denver No.2 Store,On,2004-10-03 00:00:00.000,NULL,669,87001,87016,952-555-0178,952-555-0178,"West Highland Borden Ave    ","West Highland Borden Ave    ",NULL,19,455,2009-06-17 00:00:00.000
36,818,65,Store,Contoso Denver No.3 Store,Contoso Denver No.3 Store,On,2003-06-27 00:00:00.000,NULL,670,87001,87017,943-555-0196,943-555-0196,"Wellshire St    ","Wellshire St    ",NULL,33,560,2009-06-16 00:00:00.000
37,803,66,Store,Contoso Boulder Store,Contoso Boulder Store,On,2003-03-28 00:00:00.000,NULL,671,87001,87018,937-555-0137,937-555-0137,"Transit Village Broadway      ","Transit Village Broadway      ",NULL,47,1125,2009-06-17 00:00:00.000
38,940,67,Store,Contoso Thornton Store,Contoso Thornton Store,On,2003-04-29 00:00:00.000,NULL,672,87001,87019,333-555-0173,333-555-0173,"Shopping mall, Citycenter","Shopping mall, Citycenter",NULL,22,500,2009-06-18 00:00:00.000
39,865,68,Store,Contoso Littleton Store,Contoso Littleton Store,On,2003-05-30 00:00:00.000,NULL,673,87001,87020,963-555-0134,963-555-0134,"Littleton, Citycenter ","Littleton, Citycenter ",NULL,17,462,2009-06-16 00:00:00.000
40,790,69,Store,Contoso Aurora Store,Contoso Aurora Store,On,2003-06-11 00:00:00.000,NULL,674,87001,87021,794-555-0159,794-555-0159,"Willow Park Ave     ","Willow Park Ave     ",NULL,25,700,2009-06-17 00:00:00.000
41,904,70,Store,Contoso Parker Store,Contoso Parker Store,On,2004-07-02 00:00:00.000,NULL,675,54001,54001,218-555-0126,218-555-0126,"Parker, CO  Shopping mall","Parker, CO  Shopping mall",NULL,26,680,2009-06-16 00:00:00.000
42,840,71,Store,Contoso Green Bay Store,Contoso Green Bay Store,On,2003-08-03 00:00:00.000,NULL,676,54001,54002,286-555-0189,286-555-0189,"Green Bay Downtown        ","Green Bay Downtown        ",NULL,19,455,2009-06-17 00:00:00.000
43,786,72,Store,Contoso Appleton Store,Contoso Appleton Store,On,2003-09-04 00:00:00.000,NULL,677,54001,54003,164-555-0164,164-555-0164,"Appleton, WI Newark St       ","Appleton, WI Newark St       ",NULL,33,560,2009-06-18 00:00:00.000
44,874,73,Store,Contoso Menasha Store,Contoso Menasha Store,On,2003-10-05 00:00:00.000,NULL,678,54001,54004,685-555-0120,685-555-0120,"Menasha, WI Shopping mall         ","Menasha, WI Shopping mall         ",NULL,47,1125,2009-06-16 00:00:00.000
45,901,74,Store,Contoso Oshkosh Store,Contoso Oshkosh Store,On,2007-11-06 00:00:00.000,NULL,679,54001,54005,786-555-0144,786-555-0144,"Oshkosh, WI Broadway        ","Oshkosh, WI Broadway        ",NULL,22,500,2009-06-17 00:00:00.000
46,827,136,Store,Contoso Fond du Lac Store,Contoso Fond du Lac Store,On,2007-12-07 00:00:00.000,NULL,680,54001,54006,992-555-0194,992-555-0194,"Fond du Lac Shopping mall    ","Fond du Lac Shopping mall    ",NULL,17,460,2009-06-16 00:00:00.000
47,878,75,Store,Contoso Milwaukee No.1 Store,Contoso Milwaukee No.1 Store,On,2004-01-18 00:00:00.000,NULL,681,54001,54007,818-555-0192,818-555-0192,"Havenwoods St         ","Havenwoods St         ",NULL,25,700,2009-06-17 00:00:00.000
48,878,75,Store,Contoso Milwaukee No.2 Store,Contoso Milwaukee No.2 Store,Off,2004-02-09 00:00:00.000,2009-05-12 00:00:00.000,682,54001,54008,399-555-0176,399-555-0176,"Riverwest St         ","Riverwest St         ",Relocation,25,700,2009-06-18 00:00:00.000
49,878,75,Store,Contoso Milwaukee No.3 Store,Contoso Milwaukee No.3 Store,On,2004-04-02 00:00:00.000,NULL,683,54001,54009,778-555-0141,778-555-0141,"Lincoln Village St          ","Lincoln Village St          ",NULL,26,680,2009-06-16 00:00:00.000
50,949,76,Store,Contoso Waukesha No.1 Store,Contoso Waukesha No.1 Store,On,2004-04-19 00:00:00.000,NULL,684,54001,54010,299-555-0113,299-555-0113,"Waukesha,  Water St           ","Waukesha,  Water St           ",NULL,19,455,2009-06-17 00:00:00.000
51,918,87,Store,Contoso Racine No.1 Store,Contoso Racine No.1 Store,On,2004-05-15 00:00:00.000,NULL,685,54001,54001,846-555-0157,846-555-0157,Racine shopping mall,Racine shopping mall,NULL,33,560,2009-06-16 00:00:00.000
52,806,137,Store,Contoso Burlington Store,Contoso Burlington Store,On,2004-06-17 00:00:00.000,NULL,686,54001,54012,639-555-0164,639-555-0164,"Burlington, WI St shopping mall ","Burlington, WI St shopping mall ",NULL,47,1125,2009-06-17 00:00:00.000
53,821,138,Store,Contoso East Troy Store,Contoso East Troy Store,On,2004-08-18 00:00:00.000,NULL,687,54001,54013,191-555-0112,191-555-0112,"East Troy, DW St Shopping mall        ","East Troy, DW St Shopping mall        ",NULL,22,500,2009-06-18 00:00:00.000
54,949,76,Store,Contoso Waukesha No.2 Store,Contoso Waukesha No.2 Store,On,2004-08-20 00:00:00.000,NULL,688,54014,54014,669-555-0150,669-555-0150,"Waukesha, WI 8th Ave         ","Waukesha, WI 8th Ave         ",NULL,17,462,2009-06-16 00:00:00.000
55,835,77,Store,Contoso Germantown Store,Contoso Germantown Store,On,2004-09-02 00:00:00.000,NULL,689,54001,54015,712-555-0119,712-555-0119,"Germantown, DEI St Shopping mall     ","Germantown, DEI St Shopping mall     ",NULL,25,700,2009-06-17 00:00:00.000
57,913,79,Store,Contoso Port Washington Store,Contoso Port Washington Store,On,2004-11-25 00:00:00.000,NULL,691,54001,54017,910-555-0116,910-555-0116,"Port Washington, WIMI St Shopping mall          ","Port Washington, WIMI St Shopping mall          ",NULL,26,680,2009-06-17 00:00:00.000
58,928,80,Store,Contoso Sheboygan Store,Contoso Sheboygan Store,On,2004-12-26 00:00:00.000,NULL,692,54001,54018,319-555-0139,319-555-0139,"Sheboygan, WIAmsterdam Ave     ","Sheboygan, WIAmsterdam Ave     ",NULL,19,455,2009-06-18 00:00:00.000
59,871,81,Store,Contoso Manitowoc Store,Contoso Manitowoc Store,On,2004-04-27 00:00:00.000,NULL,693,54001,54019,714-555-0138,714-555-0138,"Manitowoc, DAWI St Shopping mall           ","Manitowoc, DAWI St Shopping mall           ",NULL,33,560,2009-06-16 00:00:00.000
60,870,82,Store,Contoso Madison Store,Contoso Madison Store,On,2004-02-28 00:00:00.000,NULL,694,54001,54020,499-555-0125,499-555-0125,"Dudgeon-Monroe Shopping mall   ","Dudgeon-Monroe Shopping mall   ",NULL,47,1125,2009-06-17 00:00:00.000
61,898,83,Store,Contoso Oregon Store,Contoso Oregon Store,On,2004-03-29 00:00:00.000,NULL,695,54001,54021,932-555-0161,932-555-0161,"Oregon, EQI St  Shopping mall   ","Oregon, EQI St  Shopping mall   ",NULL,22,500,2009-06-16 00:00:00.000
62,934,84,Store,Contoso Stoughton Store,Contoso Stoughton Store,Off,2004-04-30 00:00:00.000,2009-07-12 00:00:00.000,696,54001,54022,602-555-0194,602-555-0194,"Stoughton, Citycenter","Stoughton, Citycenter",Relocation,17,462,2009-06-17 00:00:00.000
63,822,85,Store,Contoso Edgerton Store,Contoso Edgerton Store,On,2004-05-31 00:00:00.000,NULL,697,54001,54023,679-555-0113,679-555-0113,"Edgerton, WI Broadway      ","Edgerton, WI Broadway      ",NULL,25,700,2009-06-18 00:00:00.000
64,828,86,Store,Contoso Fort Atkinson Store,Contoso Fort Atkinson Store,On,2004-06-01 00:00:00.000,NULL,698,54001,54024,688-555-0192,688-555-0192,Fort Atkinson Citycenter,Fort Atkinson Citycenter,NULL,26,680,2009-06-16 00:00:00.000
65,918,87,Store,Contoso Racine No.2 Store,Contoso Racine No.2 Store,On,2009-07-02 00:00:00.000,NULL,699,54025,54025,518-555-0199,518-555-0199,"Racine, Big Shopping mall   ","Racine, Big Shopping mall   ",NULL,19,455,2009-06-17 00:00:00.000
66,849,88,Store,Contoso Houston No.1 Store,Contoso Houston No.1 Store,On,2004-08-03 00:00:00.000,NULL,700,70001,77009,901-555-0125,901-555-0125,"Texas Houston Freeman St             ","Texas Houston Freeman St             ",NULL,33,560,2009-06-16 00:00:00.000
67,849,88,Store,Contoso Houston No.2 Store,Contoso Houston No.2 Store,On,2004-03-11 00:00:00.000,NULL,701,70001,77010,434-555-0133,434-555-0133,"Texas Houston Ryon St                ","Texas Houston Ryon St                ",NULL,47,1125,2009-06-17 00:00:00.000
68,849,88,Store,Contoso Houston No.3 Store,Contoso Houston No.3 Store,On,2004-07-02 00:00:00.000,NULL,702,70001,77010,226-555-0197,226-555-0197,"Texas Houston Brewster St       ","Texas Houston Brewster St       ",NULL,22,500,2009-06-18 00:00:00.000
69,849,88,Store,Contoso Houston No.4 Store,Contoso Houston No.4 Store,On,2004-08-03 00:00:00.000,NULL,703,70001,77020,623-555-0155,623-555-0155,"Texas Houston Sakowitz St            ","Texas Houston Sakowitz St            ",NULL,17,460,2009-06-16 00:00:00.000
70,876,89,Store,Contoso Midland Store,Contoso Midland Store,On,2003-09-12 00:00:00.000,NULL,704,70001,77020,611-555-0116,611-555-0116,"West Way St      ","West Way St      ",NULL,25,700,2009-06-17 00:00:00.000
71,924,90,Store,Contoso Russellville Store,Contoso Russellville Store,On,2007-11-05 00:00:00.000,NULL,705,70001,77020,793-555-0179,793-555-0179,"Russellville, AR St             ","Russellville, AR St             ",NULL,25,700,2009-06-16 00:00:00.000
72,879,91,Store,Contoso Minden Store,Contoso Minden Store,On,2004-11-06 00:00:00.000,NULL,706,70001,77020,612-555-0171,612-555-0171,"Minden, LA  Downtown                    ","Minden, LA  Downtown                    ",NULL,26,680,2009-06-17 00:00:00.000
73,929,92,Store,Contoso Shreveport Store,Contoso Shreveport Store,On,2004-10-17 00:00:00.000,NULL,707,70001,77002,522-555-0147,522-555-0147,"Texas Houston 1300 Baker St               ","Texas Houston 1300 Baker St               ",NULL,19,455,2009-06-18 00:00:00.000
74,872,93,Store,Contoso Marshall Store,Contoso Marshall Store,On,2004-02-18 00:00:00.000,NULL,708,70001,77003,248-555-0134,248-555-0134,"Marshall, TX Shopping mall         ","Marshall, TX Shopping mall         ",NULL,33,560,2009-06-16 00:00:00.000
75,866,94,Store,Contoso Longview Store,Contoso Longview Store,On,2004-02-19 00:00:00.000,NULL,709,70001,77019,309-555-0129,309-555-0129,"Longview, SDallas St  Shopping mall              ","Longview, SDallas St  Shopping mall              ",NULL,47,1125,2009-06-17 00:00:00.000
76,798,95,Store,Contoso Beaumont No.1 Store,Contoso Beaumont No.1 Store,On,2004-02-20 00:00:00.000,NULL,710,70001,77019,896-555-0168,896-555-0168,"Beaumont, Tt Shopping mall                 ","Beaumont, Tt Shopping mall                 ",NULL,22,500,2009-06-16 00:00:00.000
77,897,96,Store,Contoso Orange Store,Contoso Orange Store,On,2004-02-21 00:00:00.000,NULL,711,70001,77019,999-555-0155,999-555-0155,"Orange Citycenter Shopping mall         ","Orange Citycenter Shopping mall         ",NULL,17,462,2009-06-17 00:00:00.000
78,798,95,Store,Contoso Beaumont No.2 Store,Contoso Beaumont No.2 Store,On,2004-02-22 00:00:00.000,NULL,712,70001,77046,808-555-0172,808-555-0172,"Beaumont, TX Downtown     ","Beaumont, TX Downtown     ",NULL,25,700,2009-06-18 00:00:00.000
79,579,97,Store,Contoso Baytown Store,Contoso Baytown Store,On,2004-01-17 00:00:00.000,NULL,713,70001,77005,119-555-0117,119-555-0117,"Baytown, TX St Shopping mall            ","Baytown, TX St Shopping mall            ",NULL,26,680,2009-06-16 00:00:00.000
80,858,98,Store,Contoso La Porte Store,Contoso La Porte Store,On,2004-02-18 00:00:00.000,NULL,714,70001,77025,420-555-0173,420-555-0173,"La Porte, TXS Shopping mall             ","La Porte, TXS Shopping mall             ",NULL,26,680,2009-06-17 00:00:00.000
81,793,99,Store,Contoso Bacliff Store,Contoso Bacliff Store,On,2004-03-19 00:00:00.000,NULL,715,70001,77002,143-555-0173,143-555-0173,"Bacliff Downtown Shopping mall         ","Bacliff Downtown Shopping mall         ",NULL,19,455,2009-06-16 00:00:00.000
82,939,100,Store,Contoso Texas City Store,Contoso Texas City Store,On,2004-04-20 00:00:00.000,NULL,716,70001,77002,815-555-0138,815-555-0138,"Texas City, TX St Shopping mall               ","Texas City, TX St Shopping mall               ",NULL,33,560,2009-06-17 00:00:00.000
83,906,101,Store,Contoso Pasadena Store,Contoso Pasadena Store,On,2004-05-21 00:00:00.000,NULL,717,70001,77003,314-555-0113,314-555-0113,"Pasadena, TX St Shopping mall        ","Pasadena, TX St Shopping mall        ",NULL,47,1125,2009-06-18 00:00:00.000
84,851,102,Store,Contoso Humble Store,Contoso Humble Store,Off,2004-06-22 00:00:00.000,2009-02-12 00:00:00.000,718,70001,77004,373-555-0137,373-555-0137,"Humble, TXd Shopping mall        ","Humble, TXd Shopping mall        ",Relocation,22,500,2009-06-16 00:00:00.000
85,933,103,Store,Contoso Spring Store,Contoso Spring Store,On,2004-07-23 00:00:00.000,NULL,719,70001,77004,153-555-0186,153-555-0186,"Arthur Bayer Park St    ","Arthur Bayer Park St    ",NULL,17,462,2009-06-17 00:00:00.000
86,791,104,Store,Contoso Austin Store,Contoso Austin Store,On,2004-08-24 00:00:00.000,NULL,720,70001,77004,172-555-0130,172-555-0130,"Central East Austin St          ","Central East Austin St          ",NULL,25,700,2009-06-16 00:00:00.000
87,925,105,Store,Contoso San Antonio Store,Contoso San Antonio Store,On,2004-08-25 00:00:00.000,NULL,721,70001,77023,970-555-0118,970-555-0118,"City North Region Downtown                 ","City North Region Downtown                 ",NULL,26,680,2009-06-17 00:00:00.000
88,453,106,Store,Contoso Cedar Park Store,Contoso Cedar Park Store,On,2004-10-26 00:00:00.000,NULL,722,70001,77011,577-555-0185,577-555-0185,"Cedar Park, TX St             ","Cedar Park, TX St             ",NULL,19,455,2009-06-18 00:00:00.000
89,923,107,Store,Contoso Round Rock Store,Contoso Round Rock Store,On,2004-11-27 00:00:00.000,NULL,723,70001,77009,373-555-0142,373-555-0142,"Egger Acres St               ","Egger Acres St               ",NULL,33,560,2009-06-16 00:00:00.000
90,815,108,Store,Contoso Dallas Store,Contoso Dallas Store,On,2008-12-02 00:00:00.000,NULL,724,75201,75202,986-555-0177,986-555-0177,"Dallas Citycenter Shopping mall      ","Dallas Citycenter Shopping mall      ",NULL,47,1125,2009-06-17 00:00:00.000
91,834,109,Store,Contoso Georgetown Store,Contoso Georgetown Store,On,2003-01-29 00:00:00.000,NULL,725,75201,75203,777-555-0141,777-555-0141,"Georgetown St         ","Georgetown St         ",NULL,22,500,2009-06-16 00:00:00.000
92,845,110,Store,Contoso Hillsboro Store,Contoso Hillsboro Store,On,2003-01-30 00:00:00.000,NULL,726,75201,75204,818-555-0128,818-555-0128,"Hillsboro, TX Ward                ","Hillsboro, TX Ward                ",NULL,17,460,2009-06-17 00:00:00.000
93,787,111,Store,Contoso Arlington Store,Contoso Arlington Store,On,2003-08-31 00:00:00.000,NULL,727,75201,75205,204-555-0115,204-555-0115,"Central Oaks Shopping mall        ","Central Oaks Shopping mall        ",NULL,25,700,2009-06-18 00:00:00.000
94,837,112,Store,Contoso Grand Prairie Store,Contoso Grand Prairie Store,On,2003-02-03 00:00:00.000,NULL,728,75201,75206,845-555-0184,845-555-0184,"Grand Prairie, TX  Downtown                   ","Grand Prairie, TX  Downtown                   ",NULL,25,700,2009-06-16 00:00:00.000
95,819,113,Store,Contoso Desoto Store,Contoso Desoto Store,On,2003-03-31 00:00:00.000,NULL,729,75201,75207,935-555-0116,935-555-0116,"Desoto, TX Shopping mall       ","Desoto, TX Shopping mall       ",NULL,26,680,2009-06-17 00:00:00.000
96,919,114,Store,Contoso Richardson Store,Contoso Richardson Store,On,2003-02-01 00:00:00.000,NULL,730,75201,75208,208-555-0114,208-555-0114,"Richardson Downtown Shopping mall           ","Richardson Downtown Shopping mall           ",NULL,19,455,2009-06-16 00:00:00.000
97,863,115,Store,Contoso Lewisville Store,Contoso Lewisville Store,On,2003-04-02 00:00:00.000,NULL,731,75201,75209,920-555-0177,920-555-0177,"Lewisville, Edeg ST Shopping mall    ","Lewisville, Edeg ST Shopping mall    ",NULL,33,560,2009-06-17 00:00:00.000
98,817,116,Store,Contoso Denton Store,Contoso Denton Store,On,2003-05-03 00:00:00.000,NULL,732,75201,75210,913-555-0184,913-555-0184,"Denton Citycenter Shopping mall    ","Denton Citycenter Shopping mall    ",NULL,47,1125,2009-06-18 00:00:00.000
99,831,117,Store,Contoso Fort Worth Store,Contoso Fort Worth Store,On,2003-06-04 00:00:00.000,NULL,733,75201,75211,148-555-0145,148-555-0145,"Amon Carter Museum St          ","Amon Carter Museum St          ",NULL,22,500,2009-06-16 00:00:00.000
100,910,118,Store,Contoso Plano Store,Contoso Plano Store,On,2003-07-05 00:00:00.000,NULL,734,75201,75212,148-555-0145,148-555-0145,"City North St         ","City North St         ",NULL,17,462,2009-06-17 00:00:00.000
101,875,119,Store,Contoso Miami No.1 Store,Contoso Miami No.1 Store,On,2003-08-06 00:00:00.000,NULL,735,33128,33130,199-555-0117,199-555-0117,FLW Flagler St,FLW Flagler St,NULL,17,462,2009-06-16 00:00:00.000
102,875,119,Store,Contoso Miami No.2 Store,Contoso Miami No.2 Store,On,2003-09-07 00:00:00.000,NULL,736,33128,33136,391-555-0138,391-555-0138,NW 8th St,NW 8th St,NULL,25,700,2009-06-17 00:00:00.000
103,853,120,Store,Contoso Jacksonville Store,Contoso Jacksonville Store,On,2003-10-08 00:00:00.000,NULL,737,32254,32254,454-555-0119,454-555-0119,Lackawanna Park St,Lackawanna Park St,NULL,26,680,2009-06-18 00:00:00.000
104,937,121,Store,Contoso Tallahassee No.1 Store,Contoso Tallahassee No.1 Store,On,2003-11-09 00:00:00.000,NULL,738,32301,32301,200-555-0117,200-555-0117,Woodland Drives St,Woodland Drives St,NULL,19,455,2009-06-16 00:00:00.000
105,937,121,Store,Contoso Tallahassee No.2 Store,Contoso Tallahassee No.2 Store,On,2003-11-29 00:00:00.000,NULL,739,32301,32303,768-555-0123,768-555-0123,Thomasville Rd,Thomasville Rd,NULL,33,560,2009-06-17 00:00:00.000
107,926,123,Store,Contoso Sebring Store,Contoso Sebring Store,On,2003-02-12 00:00:00.000,NULL,741,33870,33871,166-555-0159,166-555-0159,"601-669 N Ping St ","601-669 N Ping St ",NULL,22,500,2009-06-17 00:00:00.000
108,860,124,Store,Contoso Lakeland Store,Contoso Lakeland Store,On,2003-02-13 00:00:00.000,NULL,742,33815,33815,477-555-0132,477-555-0132,N Missouri Ave,N Missouri Ave,NULL,17,460,2009-06-18 00:00:00.000
109,830,125,Store,Contoso Fort Lauderdale Store,Contoso Fort Lauderdale Store,On,2003-02-14 00:00:00.000,NULL,743,33304,33304,582-555-0178,582-555-0178,"G Harold Martin Downtown        ","G Harold Martin Downtown        ",NULL,25,700,2009-06-16 00:00:00.000
110,899,126,Store,Contoso Orlando Store,Contoso Orlando Store,On,2003-02-15 00:00:00.000,NULL,744,32803,32803,476-555-0119,476-555-0119,1400-1598 FL-50 St,1400-1598 FL-50 St,NULL,25,700,2009-06-17 00:00:00.000
111,938,127,Store,Contoso Tampa Store,Contoso Tampa Store,On,2003-02-16 00:00:00.000,NULL,745,33605,33605,531-555-0183,531-555-0183,"E Columbus Downtown        ","E Columbus Downtown        ",NULL,26,680,2009-06-16 00:00:00.000
112,857,128,Store,Contoso Key West Store,Contoso Key West Store,Off,2004-01-12 00:00:00.000,2009-07-02 00:00:00.000,746,33040,33040,637-555-0120,637-555-0120,N Roosevelt Blvd St,N Roosevelt Blvd St,Relocation,19,455,2009-06-17 00:00:00.000
113,807,129,Store,Contoso Cape Canaveral Store,Contoso Cape Canaveral Store,On,2004-02-14 00:00:00.000,NULL,747,32920,32920,260-555-0119,260-555-0119,Astronaut Blvd St,Astronaut Blvd St,NULL,33,560,2009-06-18 00:00:00.000
114,782,130,Store,Contoso Albany Store,Contoso Albany Store,On,2004-02-12 00:00:00.000,NULL,748,12207,12207,697-555-0142,697-555-0142,"N Pine St ","N Pine St ",NULL,47,1125,2009-06-16 00:00:00.000
115,890,131,Store,Contoso New York No.1 Store,Contoso New York No.1 Store,On,2004-03-01 00:00:00.000,NULL,749,10018,10018,571-555-0179,571-555-0179,"W 40th St ","W 40th St ",NULL,22,500,2009-06-17 00:00:00.000
116,922,132,Store,Contoso Rochester No.1 Store,Contoso Rochester No.1 Store,On,2004-04-02 00:00:00.000,NULL,750,14608,14608,147-555-0179,147-555-0179,Madison St,Madison St,NULL,17,462,2009-06-16 00:00:00.000
117,890,131,Store,Contoso New York No.2 Store,Contoso New York No.2 Store,On,2005-05-15 00:00:00.000,NULL,751,10018,10018,540-555-0191,540-555-0191,Kips Bay St,Kips Bay St,NULL,25,700,2009-06-17 00:00:00.000
118,936,133,Store,Contoso Syracuse Store,Contoso Syracuse Store,On,2004-06-16 00:00:00.000,NULL,752,13203,13203,234-555-0169,234-555-0169,"520 Pearl St ","520 Pearl St ",NULL,26,680,2009-06-18 00:00:00.000
119,805,134,Store,Contoso Buffalo Store,Contoso Buffalo Store,Off,2004-07-02 00:00:00.000,2008-09-22 00:00:00.000,753,14203,14203,185-555-0186,185-555-0186,Buffalo Citycenter,Buffalo Citycenter,Store,19,455,2009-06-16 00:00:00.000
120,911,139,Store,Contoso Plattsburgh Store,Contoso Plattsburgh Store,On,2004-08-18 00:00:00.000,NULL,754,12901,12901,727-555-0112,727-555-0112,"Brinkerhoff St ","Brinkerhoff St ",NULL,33,560,2009-06-17 00:00:00.000
121,804,140,Store,Contoso Brooklyn Store,Contoso Brooklyn Store,On,2004-09-19 00:00:00.000,NULL,755,11238,11238,158-555-0191,158-555-0191,"Flatbush Ave St ","Flatbush Ave St ",NULL,47,1125,2009-06-16 00:00:00.000
122,902,141,Store,Contoso Oswego Store,Contoso Oswego Store,On,2004-10-20 00:00:00.000,NULL,756,13126,13126,785-555-0110,785-555-0110,East River St,East River St,NULL,22,500,2009-06-17 00:00:00.000
123,852,142,Store,Contoso Ithaca Store,Contoso Ithaca Store,On,2004-11-21 00:00:00.000,NULL,757,14850,14850,361-555-0180,361-555-0180,Cascadilla Ave St,Cascadilla Ave St,NULL,17,460,2009-06-18 00:00:00.000
124,922,132,Store,Contoso Rochester No.2 Store,Contoso Rochester No.2 Store,On,2004-12-22 00:00:00.000,NULL,758,14608,14608,510-555-0121,510-555-0121,Canal St,Canal St,NULL,25,700,2009-06-16 00:00:00.000
125,916,143,Store,Contoso Queens Store,Contoso Queens Store,On,2006-01-23 00:00:00.000,NULL,759,11432,11432,150-555-0194,150-555-0194,St Johns Downtown,St Johns Downtown,NULL,25,700,2009-06-17 00:00:00.000
126,823,144,Store,Contoso Elmira Store,Contoso Elmira Store,On,2004-02-24 00:00:00.000,NULL,760,14901,14901,139-555-0120,139-555-0120,Columbia St,Columbia St,NULL,26,680,2009-06-16 00:00:00.000
127,912,145,Store,Contoso Poestenkill Store,Contoso Poestenkill Store,On,2004-01-25 00:00:00.000,NULL,761,12140,12140,712-555-0113,712-555-0113,Rensselaer County St,Rensselaer County St,NULL,19,455,2009-06-17 00:00:00.000
128,943,146,Store,Contoso Trenton No.1 Store,Contoso Trenton No.1 Store,On,2004-03-26 00:00:00.000,NULL,762,8608,8608,350-555-0167,350-555-0167,241 E State St,241 E State St,NULL,33,560,2009-06-18 00:00:00.000
129,943,146,Store,Contoso Trenton No.2 Store,Contoso Trenton No.2 Store,Off,2004-07-27 00:00:00.000,2008-12-12 00:00:00.000,763,8608,8608,241-555-0191,241-555-0191,"202 S Feeder St ","202 S Feeder St ",Relocation,47,1125,2009-06-16 00:00:00.000
130,891,147,Store,Contoso Newark No.1 Store,Contoso Newark No.1 Store,On,2004-08-28 00:00:00.000,NULL,764,7102,7102,119-555-0192,119-555-0192,Halsey St,Halsey St,NULL,22,500,2009-06-17 00:00:00.000
131,891,147,Store,Contoso Newark No.2 Store,Contoso Newark No.2 Store,On,2004-09-29 00:00:00.000,NULL,765,7102,7102,200-555-0112,200-555-0112,Edison PI St,Edison PI St,NULL,17,462,2009-06-16 00:00:00.000
132,854,148,Store,Contoso Jersey City Store,Contoso Jersey City Store,On,2004-11-02 00:00:00.000,NULL,766,7304,7304,205-555-0132,205-555-0132,76 Boyd Ave St,76 Boyd Ave St,NULL,25,700,2009-06-17 00:00:00.000
133,908,149,Store,Contoso Paterson Store,Contoso Paterson Store,On,2008-12-03 00:00:00.000,NULL,767,7505,7505,653-555-0144,653-555-0144,Federal Plaza St,Federal Plaza St,NULL,26,680,2009-06-18 00:00:00.000
134,814,150,Store,Contoso Clifton Store,Contoso Clifton Store,On,2004-01-24 00:00:00.000,NULL,768,7013,7013,417-555-0154,417-555-0154,Kowal Downtown,Kowal Downtown,NULL,26,680,2009-06-16 00:00:00.000
135,820,151,Store,Contoso East Orange Store,Contoso East Orange Store,On,2004-02-15 00:00:00.000,NULL,769,7017,7017,935-555-0199,935-555-0199,N Arlington Ave,N Arlington Ave,NULL,19,455,2009-06-17 00:00:00.000
136,907,152,Store,Contoso Passaic Store,Contoso Passaic Store,On,2004-03-16 00:00:00.000,NULL,770,7055,7055,180-555-0136,180-555-0136,190 Paulison Ave,190 Paulison Ave,NULL,33,560,2009-06-16 00:00:00.000
137,797,153,Store,Contoso Bayonne Store,Contoso Bayonne Store,On,2004-04-17 00:00:00.000,NULL,771,7002,7002,500-555-0159,500-555-0159,"E 31st St ","E 31st St ",NULL,47,1125,2009-06-17 00:00:00.000
138,945,154,Store,Contoso Vineland Store,Contoso Vineland Store,On,2004-05-18 00:00:00.000,NULL,772,8360,8360,984-555-0148,984-555-0148,"W Cherry St ","W Cherry St ",NULL,22,500,2009-06-18 00:00:00.000
139,886,155,Store,Contoso New Brunswick Store,Contoso New Brunswick Store,On,2004-06-19 00:00:00.000,NULL,773,8901,8901,533-555-0111,533-555-0111,"Suydam St ","Suydam St ",NULL,17,462,2009-06-16 00:00:00.000
140,842,156,Store,Contoso Hackensack Store,Contoso Hackensack Store,On,2004-07-20 00:00:00.000,NULL,774,7601,7601,352-555-0138,352-555-0138,237 State St,237 State St,NULL,25,700,2009-06-17 00:00:00.000
141,788,157,Store,Contoso Atlantic City Store,Contoso Atlantic City Store,On,2004-08-21 00:00:00.000,NULL,775,8401,8401,446-555-0118,446-555-0118,"Pacific Ave ","Pacific Ave ",NULL,26,680,2009-06-16 00:00:00.000
142,880,158,Store,Contoso Montclair Store,Contoso Montclair Store,On,2004-09-22 00:00:00.000,NULL,776,7042,7042,955-555-0169,955-555-0169,"Valley St ","Valley St ",NULL,19,455,2009-06-17 00:00:00.000
143,847,159,Store,Contoso Hoboken Store,Contoso Hoboken Store,On,2004-10-23 00:00:00.000,NULL,777,7030,7030,110-555-0182,110-555-0182,322 8th St,322 8th St,NULL,33,560,2009-06-18 00:00:00.000
144,882,160,Store,Contoso Morristown Store,Contoso Morristown Store,On,2004-11-24 00:00:00.000,NULL,778,7960,7960,646-555-0185,646-555-0185,Washington St,Washington St,NULL,47,1125,2009-06-16 00:00:00.000
145,808,161,Store,Contoso Cape May Store,Contoso Cape May Store,On,2004-12-02 00:00:00.000,NULL,779,8204,8204,615-555-0110,615-555-0110,"Delaware Ave St ","Delaware Ave St ",NULL,22,500,2009-06-17 00:00:00.000
146,802,162,Store,Contoso Boston Store,Contoso Boston Store,On,2004-11-06 00:00:00.000,NULL,780,2210,2210,615-555-0110,615-555-0110,"Channel Center St ","Channel Center St ",NULL,17,460,2009-06-16 00:00:00.000
147,952,163,Store,Contoso Worcester No.1 Store,Contoso Worcester No.1 Store,On,2004-10-17 00:00:00.000,NULL,781,1608,1608,441-555-0195,441-555-0195,"99 Central St ","99 Central St ",NULL,25,700,2009-06-17 00:00:00.000
148,952,163,Store,Contoso Worcester No.2 Store,Contoso Worcester No.2 Store,Off,2004-02-18 00:00:00.000,2009-07-12 00:00:00.000,782,1608,1608,118-555-0110,118-555-0110,Humboldt Ave,Humboldt Ave,Relocation,25,700,2009-06-18 00:00:00.000
149,885,164,Store,Contoso New Bedford Store,Contoso New Bedford Store,On,2004-02-19 00:00:00.000,NULL,783,2740,2740,965-555-0155,965-555-0155,Palmer CityCenter,Palmer CityCenter,NULL,26,680,2009-06-16 00:00:00.000
150,789,165,Store,Contoso Attleboro Store,Contoso Attleboro Store,On,2004-02-20 00:00:00.000,NULL,784,2703,2703,589-555-0147,589-555-0147,Thacher Downtown,Thacher Downtown,NULL,19,455,2009-06-17 00:00:00.000
151,868,166,Store,Contoso Lowell Store,Contoso Lowell Store,On,2004-02-21 00:00:00.000,NULL,785,1852,1852,181-555-0124,181-555-0124,Gorham Citycenter,Gorham Citycenter,NULL,33,560,2009-06-16 00:00:00.000
152,861,167,Store,Contoso Leominster Store,Contoso Leominster Store,On,2004-02-22 00:00:00.000,NULL,786,1453,1453,678-555-0110,678-555-0110,"101 Union St Shopping mall    ","101 Union St Shopping mall    ",NULL,47,1125,2009-06-17 00:00:00.000
153,846,168,Store,Contoso Hingham Store,Contoso Hingham Store,On,2004-01-17 00:00:00.000,NULL,787,2043,2043,696-555-0157,696-555-0157,"Crowes Ln St ","Crowes Ln St ",NULL,22,500,2009-06-18 00:00:00.000
154,917,169,Store,Contoso Quincy Store,Contoso Quincy Store,On,2004-02-18 00:00:00.000,NULL,788,2169,2169,870-555-0122,870-555-0122,"Thomas E Burgin St ","Thomas E Burgin St ",NULL,17,462,2009-06-16 00:00:00.000
155,832,170,Store,Contoso Framingham Store,Contoso Framingham Store,On,2004-03-19 00:00:00.000,NULL,789,1701,1701,182-555-0134,182-555-0134,29 Woodlan St,29 Woodlan St,NULL,25,700,2009-06-17 00:00:00.000
156,449,171,Store,Contoso Cambridge Store,Contoso Cambridge Store,On,2004-04-20 00:00:00.000,NULL,790,2138,2138,594-555-0110,594-555-0110,"8 Story St  Shopping mall    ","8 Story St  Shopping mall    ",NULL,26,680,2009-06-16 00:00:00.000
157,931,172,Store,Contoso Somerville Store,Contoso Somerville Store,On,2004-05-21 00:00:00.000,NULL,791,2145,2145,587-555-0114,587-555-0114,Pembroke St,Pembroke St,NULL,26,680,2009-06-17 00:00:00.000
158,844,173,Store,Contoso Haverhill Store,Contoso Haverhill Store,On,2004-06-22 00:00:00.000,NULL,792,1832,1832,368-555-0113,368-555-0113,"Hilldale Ave St ","Hilldale Ave St ",NULL,19,455,2009-06-18 00:00:00.000
159,869,174,Store,Contoso Lynn Store,Contoso Lynn Store,On,2004-07-23 00:00:00.000,NULL,793,1904,1904,869-555-0119,869-555-0119,Congress Rd,Congress Rd,NULL,33,560,2009-06-16 00:00:00.000
160,895,175,Store,Contoso Northampton Store,Contoso Northampton Store,On,2004-08-24 00:00:00.000,NULL,794,1062,1062,806-555-0136,806-555-0136,"Florence Rd Shopping mall    ","Florence Rd Shopping mall    ",NULL,47,1125,2009-06-17 00:00:00.000
161,848,176,Store,Contoso Holyoke Store,Contoso Holyoke Store,On,2004-08-25 00:00:00.000,NULL,795,1040,1040,819-555-0198,819-555-0198,"Old Jarvis Ave ","Old Jarvis Ave ",NULL,22,500,2009-06-16 00:00:00.000
162,909,177,Store,Contoso Pittsfield Store,Contoso Pittsfield Store,Off,2004-10-26 00:00:00.000,2009-07-12 00:00:00.000,796,1201,1201,173-555-0179,173-555-0179,Columbus Ave,Columbus Ave,Relocation,17,462,2009-06-17 00:00:00.000
163,826,178,Store,Contoso Falmouth Store,Contoso Falmouth Store,On,2004-11-27 00:00:00.000,NULL,797,2540,2540,429-555-0137,429-555-0137,"Shore Citycenter Shopping mall    ","Shore Citycenter Shopping mall    ",NULL,25,700,2009-06-18 00:00:00.000
164,914,179,Store,Contoso Provincetown Store,Contoso Provincetown Store,On,2004-12-02 00:00:00.000,NULL,798,2657,2657,181-555-0156,181-555-0156,Alden St,Alden St,NULL,26,680,2009-06-16 00:00:00.000
165,883,180,Store,Contoso Nantucket Store,Contoso Nantucket Store,On,2004-11-06 00:00:00.000,NULL,799,2554,2554,810-555-0178,810-555-0178,8 Washington St,8 Washington St,NULL,19,455,2009-06-17 00:00:00.000
166,795,181,Store,Contoso Bangor Store,Contoso Bangor Store,On,2004-10-17 00:00:00.000,NULL,800,4401,4401,201-555-0163,201-555-0163,"Woodland Dr St Shopping mall    ","Woodland Dr St Shopping mall    ",NULL,33,560,2009-06-16 00:00:00.000
167,796,182,Store,Contoso Bar Harbor Store,Contoso Bar Harbor Store,On,2004-02-18 00:00:00.000,NULL,801,4609,4609,746-555-0164,746-555-0164,Ledgelawn Ave,Ledgelawn Ave,NULL,47,1125,2009-06-17 00:00:00.000
168,855,183,Store,Contoso Kennebunkport Store,Contoso Kennebunkport Store,On,2004-02-19 00:00:00.000,NULL,802,4046,4046,587-555-0115,587-555-0115,"School St ","School St ",NULL,22,500,2009-06-18 00:00:00.000
169,862,184,Store,Contoso Lewiston Store,Contoso Lewiston Store,On,2004-02-20 00:00:00.000,NULL,803,4240,4240,140-555-0132,140-555-0132,50 Kevin St,50 Kevin St,NULL,17,460,2009-06-16 00:00:00.000
170,900,185,Store,Contoso Orono Store,Contoso Orono Store,On,2004-02-21 00:00:00.000,NULL,804,4473,4473,309-555-0170,309-555-0170,"Pleasant St ","Pleasant St ",NULL,25,700,2009-06-17 00:00:00.000
171,932,186,Store,Contoso South Portland Store,Contoso South Portland Store,On,2004-02-22 00:00:00.000,NULL,805,4106,4106,990-555-0172,990-555-0172,"Robert Mills St ","Robert Mills St ",NULL,25,700,2009-06-16 00:00:00.000
172,843,187,Store,Contoso Hartford Store,Contoso Hartford Store,On,2004-01-17 00:00:00.000,NULL,806,6103,6103,117-555-0185,117-555-0185,"Asylum St Shopping mall    ","Asylum St Shopping mall    ",NULL,26,680,2009-06-17 00:00:00.000
173,801,188,Store,Contoso Bridgeport Store,Contoso Bridgeport Store,On,2004-02-18 00:00:00.000,NULL,807,6604,6604,609-555-0153,609-555-0153,Center St,Center St,NULL,19,455,2009-06-18 00:00:00.000
174,948,189,Store,Contoso Waterbury Store,Contoso Waterbury Store,On,2004-03-19 00:00:00.000,NULL,808,6702,6702,238-555-0116,238-555-0116,"192 Bank St Shopping mall    ","192 Bank St Shopping mall    ",NULL,33,560,2009-06-16 00:00:00.000
175,896,190,Store,Contoso Old Saybrook Store,Contoso Old Saybrook Store,On,2004-04-20 00:00:00.000,NULL,809,6475,6475,100-555-0174,100-555-0174,18 W King Rd,18 W King Rd,NULL,47,1125,2009-06-17 00:00:00.000
176,816,191,Store,Contoso Darien Store,Contoso Darien Store,On,2004-05-21 00:00:00.000,NULL,810,6820,6820,438-555-0172,438-555-0172,"Lakeside Ave Shopping mall    ","Lakeside Ave Shopping mall    ",NULL,22,500,2009-06-16 00:00:00.000
177,888,192,Store,Contoso New Haven Store,Contoso New Haven Store,On,2004-06-22 00:00:00.000,NULL,811,6511,6511,118-555-0177,118-555-0177,Lynwood PI Downtown,Lynwood PI Downtown,NULL,17,462,2009-06-17 00:00:00.000
178,864,193,Store,Contoso Litchfield County Store,Contoso Litchfield County Store,On,2004-07-23 00:00:00.000,NULL,812,6759,6759,164-555-0114,164-555-0114,"CTuDED Rd, Litchfield County","CTuDED Rd, Litchfield County",NULL,25,700,2009-06-18 00:00:00.000
179,889,194,Store,Contoso New London Store,Contoso New London Store,On,2004-08-24 00:00:00.000,NULL,813,6320,6320,156-555-0199,156-555-0199,Jefferson Ave,Jefferson Ave,NULL,26,680,2009-06-16 00:00:00.000
180,892,195,Store,Contoso Norfolk Store,Contoso Norfolk Store,On,2004-08-25 00:00:00.000,NULL,814,23504,23504,712-555-0170,712-555-0170,Wide St Shopping mall,Wide St Shopping mall,NULL,26,680,2009-06-17 00:00:00.000
181,946,196,Store,Contoso Virginia Beach Store,Contoso Virginia Beach Store,On,2004-10-26 00:00:00.000,NULL,815,23451,23451,753-555-0129,753-555-0129,Atlantic Shopping mall,Atlantic Shopping mall,NULL,19,455,2009-06-16 00:00:00.000
182,951,197,Store,Contoso Winchester Store,Contoso Winchester Store,On,2004-11-27 00:00:00.000,NULL,816,22601,22601,654-555-0177,654-555-0177,Handley St Shopping mall,Handley St Shopping mall,NULL,33,560,2009-06-17 00:00:00.000
183,784,111,Store,Contoso Anchorage Store,Contoso Anchorage Store,On,2004-12-02 00:00:00.000,NULL,817,NULL,NULL,110-555-0115,110-555-0115,"4800 Spenard Road,Shopping mall","4800 Spenard Road,Shopping mall",NULL,47,1125,2009-06-18 00:00:00.000
184,783,198,Store,Contoso Alexandria Store,Contoso Alexandria Store,Off,2004-11-06 00:00:00.000,2009-07-12 00:00:00.000,818,22302,22302,822-555-0145,822-555-0145,Kingsgate St Shopping mall,Kingsgate St Shopping mall,Relocation,22,500,2009-06-16 00:00:00.000
185,921,199,Store,Contoso Roanoke Store,Contoso Roanoke Store,On,2004-10-17 00:00:00.000,NULL,819,24011,24011,559-555-0175,559-555-0175,Salem Ave SE StShopping mall,Salem Ave SE StShopping mall,NULL,17,462,2009-06-17 00:00:00.000
186,811,200,Store,Contoso Charlottesville Store,Contoso Charlottesville Store,On,2004-02-18 00:00:00.000,NULL,820,22903,22903,751-555-0134,751-555-0134,Grady Ave StShopping mall,Grady Ave StShopping mall,NULL,25,700,2009-06-16 00:00:00.000
187,833,201,Store,Contoso Fredericksburg Store,Contoso Fredericksburg Store,On,2004-02-19 00:00:00.000,NULL,821,22401,22401,319-555-0126,319-555-0126,Beverly St Shopping mall,Beverly St Shopping mall,NULL,26,680,2009-06-17 00:00:00.000
188,873,202,Store,Contoso Martinsville Store,Contoso Martinsville Store,On,2004-02-20 00:00:00.000,NULL,822,24112,24112,809-555-0133,809-555-0133,Monroe St,Monroe St,NULL,19,455,2009-06-18 00:00:00.000
189,841,203,Store,Contoso Greenville Store,Contoso Greenville Store,On,2004-02-21 00:00:00.000,NULL,823,29601,29601,517-555-0122,517-555-0122,Lavinia St Shopping mall,Lavinia St Shopping mall,NULL,33,560,2009-06-16 00:00:00.000
190,810,204,Store,Contoso Charleston Store,Contoso Charleston Store,On,2004-02-22 00:00:00.000,NULL,824,29406,29406,552-555-0111,552-555-0111,Rockingham St Shopping mall,Rockingham St Shopping mall,NULL,47,1125,2009-06-17 00:00:00.000
191,785,205,Store,Contoso Annapolis Store,Contoso Annapolis Store,On,2004-01-17 00:00:00.000,NULL,825,21401,21401,908-555-0159,908-555-0159,Cherry Grove Ave Shopping mall,Cherry Grove Ave Shopping mall,NULL,22,500,2009-06-16 00:00:00.000
192,794,206,Store,Contoso Baltimore Store,Contoso Baltimore Store,On,2004-02-18 00:00:00.000,NULL,826,21201,21201,508-555-0129,508-555-0129,Pleasant St,Pleasant St,NULL,17,460,2009-06-17 00:00:00.000
193,850,207,Store,Contoso Howard Store,Contoso Howard Store,On,2004-03-19 00:00:00.000,NULL,827,21794,21794,167-555-0139,167-555-0139,River Valley Chase St Shopping mall,River Valley Chase St Shopping mall,NULL,25,700,2009-06-18 00:00:00.000
194,920,208,Store,Contoso Ridgely Store,Contoso Ridgely Store,On,2004-04-20 00:00:00.000,NULL,828,21660,21660,310-555-0133,310-555-0133,"Deerfield St ","Deerfield St ",NULL,25,700,2009-06-16 00:00:00.000
195,915,209,Store,Contoso Queen Anne's County Store,Contoso Queen Anne's County Store,On,2004-05-21 00:00:00.000,NULL,829,21617,21617,106-555-0120,106-555-0120,Tilghman Neck St Shopping mall,Tilghman Neck St Shopping mall,NULL,26,680,2009-06-17 00:00:00.000
196,905,210,Store,Contoso Parkville Store,Contoso Parkville Store,On,2004-06-22 00:00:00.000,NULL,830,21234,21234,949-555-0174,949-555-0174,Parkville St Shopping mall,Parkville St Shopping mall,NULL,19,455,2009-06-16 00:00:00.000
197,792,211,Store,Contoso Back River Store,Contoso Back River Store,On,2004-07-23 00:00:00.000,NULL,831,21219,21219,955-555-0131,955-555-0131,Back River St Shopping mall,Back River St Shopping mall,NULL,33,560,2009-06-17 00:00:00.000
198,835,77,Store,Contoso North Harford Store,Contoso North Harford Store,On,2004-08-24 00:00:00.000,NULL,832,20874,20874,817-555-0186,817-555-0186,Wisteria St Shopping mall,Wisteria St Shopping mall,NULL,47,1125,2009-06-18 00:00:00.000
199,800,212,Online,Contoso North America Online Store,Contoso Online Store,On,2004-08-25 00:00:00.000,NULL,59,20817,20817,450-555-0152,450-555-0152,Marbury St Shopping mall,Marbury St Shopping mall,NULL,325,500,2009-06-16 00:00:00.000
200,894,213,Catalog,Contoso Catalog Store,Contoso Catalog Store,On,2004-10-26 00:00:00.000,NULL,58,21234,21234,278-555-0118,278-555-0118,North Harford St Shopping mall,North Harford St Shopping mall,NULL,120,462,2009-06-17 00:00:00.000
201,506,219,Store,Contoso London Store,Contoso London Store,On,2004-11-27 00:00:00.000,NULL,833,NULL,NULL,927-555-0168,927-555-0168,"London, W1C 1HG, United Kingdom","London, W1C 1HG, United Kingdom",NULL,17,462,2009-06-16 00:00:00.000
202,748,220,Store,Contoso Edinburgh Store,Contoso Edinburgh Store,On,2004-08-02 00:00:00.000,NULL,834,NULL,NULL,296-555-0121,296-555-0121,"Princes St Edinburgh, Midlothian Shopping mall, United Kingdom","Princes St Edinburgh, Midlothian Shopping mall, United Kingdom",NULL,25,700,2009-06-17 00:00:00.000
203,751,221,Store,Contoso Glasgow Store,Contoso Glasgow Store,On,2007-08-16 00:00:00.000,NULL,835,NULL,NULL,289-555-0196,289-555-0196,"Renfrew St Glasgow, Lanarkshire, Citycenter, United Kingdom","Renfrew St Glasgow, Lanarkshire, Citycenter, United Kingdom",NULL,26,680,2009-06-18 00:00:00.000
204,576,222,Store,Contoso York Store,Contoso York Store,On,2004-08-27 00:00:00.000,NULL,836,NULL,NULL,848-555-0163,848-555-0163,"Spurriergate York, North Yorkshire Citycenter, United Kingdom","Spurriergate York, North Yorkshire Citycenter, United Kingdom",NULL,78,680,2009-06-16 00:00:00.000
205,742,223,Store,Contoso Carlisle Store,Contoso Carlisle Store,On,2004-05-18 00:00:00.000,NULL,837,NULL,NULL,165-555-0113,165-555-0113,"Citycenter  Botchergate Carlisle, UK","Citycenter  Botchergate Carlisle, UK",NULL,23,680,2009-06-17 00:00:00.000
206,761,224,Store,Contoso Manchester Store,Contoso Manchester Store,On,2004-06-19 00:00:00.000,NULL,838,NULL,NULL,869-555-0125,869-555-0125," Windsor Ave Failsworth, Manchester Citycenter, United Kingdom"," Windsor Ave Failsworth, Manchester Citycenter, United Kingdom",NULL,11,680,2009-06-16 00:00:00.000
207,755,225,Store,Contoso Lancashire Store,Contoso Lancashire Store,On,2004-07-20 00:00:00.000,NULL,839,NULL,NULL,393-555-0186,393-555-0186,"Rochdale Rd Todmorden, Lancashire Shopping mall, United Kingdom","Rochdale Rd Todmorden, Lancashire Shopping mall, United Kingdom",NULL,36,680,2009-06-17 00:00:00.000
208,781,226,Store,Contoso West Yorkshire Store,Contoso West Yorkshire Store,On,2004-03-21 00:00:00.000,NULL,840,NULL,NULL,318-555-0137,318-555-0137,"22 Market Sq Shipley, West Yorkshire, BD18 3QJ, United Kingdom","22 Market Sq Shipley, West Yorkshire, BD18 3QJ, United Kingdom",NULL,90,680,2009-06-18 00:00:00.000
209,738,227,Store,Contoso Baildon Store,Contoso Baildon Store,On,2004-09-22 00:00:00.000,NULL,841,NULL,NULL,138-555-0118,138-555-0118,"West Ln, Baildon, Shipley Citycenter, United","West Ln, Baildon, Shipley Citycenter, United",NULL,32,680,2009-06-16 00:00:00.000
210,743,228,Store,Contoso Cheshire Store,Contoso Cheshire Store,On,2004-04-23 00:00:00.000,NULL,842,NULL,NULL,663-555-0172,663-555-0172,"Market St  Marple, Stockport, Cheshire Citycenter, United Kingdom","Market St  Marple, Stockport, Cheshire Citycenter, United Kingdom",NULL,NULL,680,2009-06-17 00:00:00.000
211,774,229,Store,Contoso Stockport Store,Contoso Stockport Store,On,2004-11-24 00:00:00.000,NULL,843,NULL,NULL,224-555-0187,224-555-0187,"Buxton Rd High Lane, Stockport Citycenter, United Kingdom","Buxton Rd High Lane, Stockport Citycenter, United Kingdom",NULL,34,680,2009-06-16 00:00:00.000
212,651,230,Store,Contoso Liverpool Store,Contoso Liverpool Store,On,2004-03-02 00:00:00.000,NULL,844,NULL,NULL,313-555-0196,313-555-0196,"Leinster Rd Liverpool, Merseyside Citycenter, UK  ","Leinster Rd Liverpool, Merseyside Citycenter, UK  ",NULL,64,680,2009-06-17 00:00:00.000
213,753,231,Store,Contoso Knotty Ash Store,Contoso Knotty Ash Store,On,2004-03-26 00:00:00.000,NULL,845,NULL,NULL,785-555-0132,785-555-0132,"East Prescot Road Knotty Ash, Citycenter, United Kingdom","East Prescot Road Knotty Ash, Citycenter, United Kingdom",NULL,24,680,2009-06-18 00:00:00.000
214,501,232,Store,Contoso Leeds Store,Contoso Leeds Store,On,2004-06-27 00:00:00.000,NULL,846,NULL,NULL,407-555-0165,407-555-0165,"Leeds Citycenter, United Kingdom","Leeds Citycenter, United Kingdom",NULL,25,680,2009-06-16 00:00:00.000
215,529,233,Store,Contoso Paris Store,Contoso Paris Store,On,2004-03-28 00:00:00.000,NULL,847,75001,75001,139-555-0131,139-555-0131,"Rue de Rivoli Citycenter  Paris, France","Rue de Rivoli Citycenter  Paris, France",NULL,12,680,2009-06-17 00:00:00.000
216,762,234,Store,Contoso Marseille Store,Contoso Marseille Store,On,2008-04-29 00:00:00.000,NULL,854,13006,13006,142-555-0139,142-555-0139,"Citycenter Marseille, France","Citycenter Marseille, France",NULL,13,680,2009-06-16 00:00:00.000
217,759,235,Store,Contoso Lyon Store,Contoso Lyon Store,On,2004-08-30 00:00:00.000,NULL,855,69002,69002,207-555-0192,207-555-0192,"Citycenter Lyon, France","Citycenter Lyon, France",NULL,15,680,2009-06-17 00:00:00.000
218,777,236,Store,Contoso Toulouse Store,Contoso Toulouse Store,On,2004-09-11 00:00:00.000,NULL,856,31000,31000,575-555-0126,575-555-0126,"Citycenter  toulouse, France","Citycenter  toulouse, France",NULL,23,680,2009-06-18 00:00:00.000
219,767,237,Store,Contoso Nice Store,Contoso Nice Store,On,2004-02-02 00:00:00.000,NULL,857,51000,51000,315-555-0144,315-555-0144,"Citycenter Reims, France","Citycenter Reims, France",NULL,32,680,2009-06-16 00:00:00.000
220,766,238,Store,Contoso Nantes Store,Contoso Nantes Store,On,2004-08-03 00:00:00.000,NULL,858,44000,44000,991-555-0184,991-555-0184,"Citycenter Nantes, France","Citycenter Nantes, France",NULL,11,680,2009-06-17 00:00:00.000
221,775,239,Store,Contoso Strasbourg Store,Contoso Strasbourg Store,On,2004-09-04 00:00:00.000,NULL,859,67000,67000,310-555-0117,310-555-0117,"Downtown Strasbourg, France","Downtown Strasbourg, France",NULL,10,630,2009-06-16 00:00:00.000
222,771,240,Store,Contoso Roma Store,Contoso Roma Store,On,2007-10-05 00:00:00.000,NULL,860,192,192,927-555-0150,927-555-0150,NULL,NULL,NULL,43,490,2009-06-17 00:00:00.000
223,779,241,Store,Contoso Venezia Store,Contoso Venezia Store,On,2009-07-06 00:00:00.000,NULL,861,30124,30124,330-555-2568,330-555-2568,NULL,NULL,NULL,11,500,2009-06-18 00:00:00.000
224,749,242,Store,Contoso Firenze Store,Contoso Firenze Store,On,2004-12-07 00:00:00.000,NULL,862,50122,50122,110-555-0112,110-555-0112,NULL,NULL,NULL,45,500,2009-06-16 00:00:00.000
225,776,243,Store,Contoso Torino Store,Contoso Torino Store,On,2004-03-18 00:00:00.000,NULL,863,10141,10141,931-555-0118,931-555-0118,NULL,NULL,NULL,24,500,2009-06-17 00:00:00.000
226,763,244,Store,Contoso Milan Store,Contoso Milan Store,On,2004-04-09 00:00:00.000,NULL,864,20149,20149,202-555-0187,202-555-0187,NULL,NULL,NULL,23,500,2009-06-16 00:00:00.000
227,884,245,Store,Contoso Naples Store,Contoso Naples Store,On,2004-03-02 00:00:00.000,NULL,865,20124,20124,492-555-0174,492-555-0174,"Downtown Naples, Florida","Downtown Naples, Florida",NULL,13,500,2009-06-17 00:00:00.000
228,586,246,Store,Contoso Berlin Store,Contoso Berlin Store,On,2008-10-09 00:00:00.000,NULL,866,10178,10178,730-555-0117,730-555-0117,"Downtown Berlin, Germany","Downtown Berlin, Germany",NULL,13,500,2009-06-18 00:00:00.000
230,754,247,Store,Contoso koln No.2 Store,Contoso Cologne Store,On,2004-05-15 00:00:00.000,NULL,868,50672,50672,916-555-0165,916-555-0165,"Downtown, Koln, Germany","Downtown, Koln, Germany",NULL,25,500,2009-06-17 00:00:00.000
231,752,248,Store,Contoso Hofheim Store,Contoso Hofheim Store,On,2004-06-17 00:00:00.000,NULL,869,65719,65719,405-555-0171,405-555-0171,"Citycenter Hofheim am Taunus, Germany","Citycenter Hofheim am Taunus, Germany",NULL,25,500,2009-06-16 00:00:00.000
232,754,249,Store,Contoso koln No.1 Store,Contoso koln Store,On,2004-07-29 00:00:00.000,NULL,870,50823,50823,583-555-0182,583-555-0182,"Citycenter Koln, Germany","Citycenter Koln, Germany",NULL,35,500,2009-06-17 00:00:00.000
233,756,250,Store,Contoso Landstuhl Store,Contoso Landstuhl Store,On,2004-08-20 00:00:00.000,NULL,871,66917,66917,447-555-0186,447-555-0186,"Citycenter Wallhalben, Germany","Citycenter Wallhalben, Germany",NULL,21,500,2009-06-18 00:00:00.000
234,747,251,Store,Contoso Dusseldorf Store,Contoso Dusseldorf Store,On,2007-09-12 00:00:00.000,NULL,872,40229,40229,283-555-0185,283-555-0185,"Citycenter, Düsseldorf, Germany","Citycenter, Düsseldorf, Germany",NULL,24,500,2009-06-16 00:00:00.000
235,770,252,Store,Contoso Ramstein Store,Contoso Ramstein Store,On,2004-08-13 00:00:00.000,NULL,873,66877,66877,555-555-0113,555-555-0113,"Citycenter Shopping mall Ramstein-Miesenbach, Germany","Citycenter Shopping mall Ramstein-Miesenbach, Germany",NULL,15,500,2009-06-17 00:00:00.000
236,739,253,Store,Contoso Baumholder Store,Contoso Baumholder Store,On,2004-06-25 00:00:00.000,NULL,874,55774,55774,733-555-0128,733-555-0128,"Shopping Mall Baumholder, Germany","Shopping Mall Baumholder, Germany",NULL,28,500,2009-06-16 00:00:00.000
237,750,254,Store,Contoso Giebelstadt Store,Contoso Giebelstadt Store,On,2004-12-26 00:00:00.000,NULL,875,97232,97232,264-555-0150,264-555-0150,"Citycenter, Giebelstadt, Germany","Citycenter, Giebelstadt, Germany",NULL,15,500,2009-06-17 00:00:00.000
238,769,255,Store,Contoso obamberg Store,Contoso obamberg Store,On,2004-05-27 00:00:00.000,NULL,876,96049,96049,520-555-0177,520-555-0177,"Citycenter Bamberg, Germany","Citycenter Bamberg, Germany",NULL,29,500,2009-06-18 00:00:00.000
239,765,256,Store,Contoso Munich Store,Contoso Munich Store,On,2006-02-28 00:00:00.000,NULL,877,80331,80331,497-555-0181,497-555-0181,"Citycenter München, Germany","Citycenter München, Germany",NULL,18,500,2009-06-16 00:00:00.000
240,736,257,Store,Contoso Amsterdam Store,Contoso Amsterdam Store,On,2004-03-29 00:00:00.000,NULL,878,NULL,NULL,230-555-0144,230-555-0144,"Citycenter Shopping mall, Amsterdam (Noord-Holland), Netherlands","Citycenter Shopping mall, Amsterdam (Noord-Holland), Netherlands",NULL,26,680,2009-06-17 00:00:00.000
241,745,258,Store,Contoso Copenhagen Store,Contoso Copenhagen Store,On,2004-04-30 00:00:00.000,NULL,879,NULL,NULL,123-555-0167,123-555-0167,"Ny Carlsbergvej 14 St, Denmark","Ny Carlsbergvej 14 St, Denmark",NULL,25,680,2009-06-16 00:00:00.000
242,773,259,Store,Contoso Stockholm Store,Contoso Stockholm Store,On,2004-05-31 00:00:00.000,NULL,880,11145,11145,208-555-0114,208-555-0114,"Birger Jarlsg Shopping mall, Sweden","Birger Jarlsg Shopping mall, Sweden",NULL,33,680,2009-06-17 00:00:00.000
243,760,260,Store,Contoso Madrid Store,Contoso Madrid Store,On,2004-03-01 00:00:00.000,NULL,881,28049,28049,166-555-0156,166-555-0156,"Alcobendas Shopping mall MADRID, Spain","Alcobendas Shopping mall MADRID, Spain",NULL,35,680,2009-06-18 00:00:00.000
244,758,261,Store,Contoso Ljubljana Store,Contoso Ljubljana Store,On,2004-07-02 00:00:00.000,NULL,882,1000,1000,129-555-0199,129-555-0199,"Citycenter Ljubljana, Slovenia","Citycenter Ljubljana, Slovenia",NULL,36,680,2009-06-16 00:00:00.000
245,741,262,Store,Contoso Bucharest Store,Contoso Bucharest Store,On,2004-05-19 00:00:00.000,NULL,883,30583,30583,163-555-0147,163-555-0147,"Nan Street Bucharest, Romania","Nan Street Bucharest, Romania",NULL,25,680,2009-06-17 00:00:00.000
246,740,263,Store,Contoso Berne Store,Contoso Berne Store,On,2004-04-20 00:00:00.000,NULL,884,NULL,NULL,590-555-0152,590-555-0152,NULL,NULL,NULL,53,680,2009-06-16 00:00:00.000
247,780,264,Store,Contoso Warsaw Store,Contoso Warsaw Store,On,2004-09-04 00:00:00.000,NULL,885,NULL,NULL,680-555-0118,680-555-0118,"Citycenter Warszawa, Poland","Citycenter Warszawa, Poland",NULL,15,680,2009-06-17 00:00:00.000
248,778,265,Store,Contoso Valletta Store,Contoso Valletta Store,On,2004-02-19 00:00:00.000,NULL,886,NULL,NULL,265-555-0195,265-555-0195,"Citycenter, Fgura, Malta","Citycenter, Fgura, Malta",NULL,42,680,2009-06-18 00:00:00.000
249,746,266,Store,Contoso Dublin Store,Contoso Dublin Store,On,2006-02-20 00:00:00.000,NULL,887,NULL,NULL,720-555-0158,720-555-0158,"Pconnell Street Upper Dublin, DUBLIN 1, Ireland","Pconnell Street Upper Dublin, DUBLIN 1, Ireland",NULL,55,680,2009-06-16 00:00:00.000
250,737,267,Store,Contoso Athens Store,Contoso Athens Store,On,2004-04-17 00:00:00.000,NULL,888,10559,10559,237-555-0128,237-555-0128,NULL,NULL,NULL,15,680,2009-06-17 00:00:00.000
251,728,268,Store,Contoso Singapore Store,Contoso Singapore Store,On,2004-04-22 00:00:00.000,NULL,848,302699,302699,842-555-0158,842-555-0158,"Havelock Road Shopping mall, Singapore","Havelock Road Shopping mall, Singapore",NULL,27,480,2009-06-16 00:00:00.000
252,713,296,Store,Contoso Canberra Store,Contoso Canberra Store,On,2005-11-17 00:00:00.000,NULL,889,NULL,NULL,413-555-0124,413-555-0124,"Canberra International shopping mall, Australia","Canberra International shopping mall, Australia",NULL,28,480,2009-06-17 00:00:00.000
253,558,294,Store,Contoso Sydney No.1 Store,Contoso Sydney No.1 Store,On,2005-06-27 00:00:00.000,NULL,890,2000,2000,203-555-0196,203-555-0196,"Sydney Citycenter, Australia","Sydney Citycenter, Australia",NULL,20,480,2009-06-18 00:00:00.000
254,734,295,Store,Contoso Yerevan Store,Contoso Yerevan Store,On,2004-03-28 00:00:00.000,NULL,891,10,10,919-555-0140,919-555-0140,"Amiryan Street Yerevan,  Armenia","Amiryan Street Yerevan,  Armenia",NULL,15,480,2009-06-16 00:00:00.000
255,723,269,Store,Contoso New Delhi Store,Contoso New Delhi Store,On,2004-04-29 00:00:00.000,NULL,892,110005,110005,153-555-0166,153-555-0166,"Khan Market, New Delhi,  India","Khan Market, New Delhi,  India",NULL,29,480,2009-06-17 00:00:00.000
256,721,270,Store,Contoso Mumbai Store,Contoso Mumbai Store,On,2004-07-30 00:00:00.000,NULL,893,201901,201901,425-555-0117,425-555-0117,"Mumbai Citycenter, Maharashtra, India","Mumbai Citycenter, Maharashtra, India",NULL,35,480,2009-06-16 00:00:00.000
257,718,271,Store,Contoso Kolkata Store,Contoso Kolkata Store,On,2005-06-11 00:00:00.000,NULL,894,700017,700017,491-555-0183,491-555-0183,"Citycenter, Kolkata, West Bengal, India‎ ","Citycenter, Kolkata, West Bengal, India‎ ",NULL,35,480,2009-06-17 00:00:00.000
258,731,272,Store,Contoso Thimphu No.1 Store,Contoso Thimphu No.1 Store,On,2009-07-02 00:00:00.000,NULL,895,NULL,NULL,295-555-0161,295-555-0161,"Citycenter, Thimphu, Bhutan","Citycenter, Thimphu, Bhutan",NULL,35,480,2009-06-18 00:00:00.000
259,716,273,Store,Contoso Hong Kong No.1 Store,Contoso Hong Kong No.1 Store,On,2004-08-03 00:00:00.000,NULL,896,NULL,NULL,500-555-0172,500-555-0172,"Hong Kong,  New Town Plaza‎ ","Hong Kong,  New Town Plaza‎ ",NULL,35,480,2009-06-16 00:00:00.000
260,730,274,Store,Contoso Tehran No.1 Store,Contoso Tehran No.1 Store,On,2004-09-04 00:00:00.000,NULL,897,1698530,1698530,325-555-0137,325-555-0137,"Citycenter, Tehran, Tehran, Iran","Citycenter, Tehran, Tehran, Iran",NULL,35,480,2009-06-17 00:00:00.000
261,714,275,Store,Contoso Damascus No.1 Store,Contoso Damascus No.1 Store,On,2007-10-05 00:00:00.000,NULL,898,35005,35005,582-555-0148,582-555-0148,"Nissan Street, Mezze Damascus, Syria","Nissan Street, Mezze Damascus, Syria",NULL,35,480,2009-06-16 00:00:00.000
262,709,276,Store,Contoso Bangkok No.1 Store,Contoso Bangkok No.1 Store,On,2008-11-06 00:00:00.000,NULL,899,10110,10110,961-555-0122,961-555-0122,"Bangkok,Citycenter, Thailand","Bangkok,Citycenter, Thailand",NULL,62,480,2009-06-17 00:00:00.000
263,764,277,Store,Contoso Moscow  No.1 Store,Contoso Moscow  No.1 Store,On,2004-06-07 00:00:00.000,NULL,900,107031,107031,254-555-0114,254-555-0114,"Citycenter, Russia","Citycenter, Russia",NULL,65,480,2009-06-18 00:00:00.000
264,708,278,Store,Contoso Ashgabat No.1 Store,Contoso Ashgabat No.1 Store,On,2004-01-18 00:00:00.000,NULL,901,744000,744000,521-555-0113,521-555-0113,"Gorogly Street, Turkmenistan","Gorogly Street, Turkmenistan",NULL,68,480,2009-06-16 00:00:00.000
265,717,279,Store,Contoso Islamabad No.1 Store,Contoso Islamabad No.1 Store,On,2004-02-09 00:00:00.000,NULL,902,10086,10086,306-555-0186,306-555-0186," Islamabad Capital Territory, Pakistan"," Islamabad Capital Territory, Pakistan",NULL,71,480,2009-06-17 00:00:00.000
267,732,281,Store,Contoso Tokyo No.1 Store,Contoso Tokyo No.1 Store,On,2004-04-02 00:00:00.000,NULL,904,NULL,NULL,539-555-0149,539-555-0149,"Shinjuku, Tokyo Citycenter","Shinjuku, Tokyo Citycenter",NULL,68,480,2009-06-17 00:00:00.000
268,732,281,Store,Contoso Tokyo No.2 Store,Contoso Tokyo No.2 Store,On,2006-04-19 00:00:00.000,NULL,905,NULL,NULL,228-555-0159,228-555-0159,"Citycenter, Shinjuku-kuTokyo, Japan‎","Citycenter, Shinjuku-kuTokyo, Japan‎",NULL,68,480,2009-06-18 00:00:00.000
269,735,282,Store,Contoso Yokohama Store,Contoso Yokohama Store,On,2004-05-15 00:00:00.000,NULL,906,NULL,NULL,151-555-0113,151-555-0113,"Citycenter, Kanagawa Prefecture Japan","Citycenter, Kanagawa Prefecture Japan",NULL,77,480,2009-06-17 00:00:00.000
270,724,283,Store,Contoso Osaka No.1 Store,Contoso Osaka No.1 Store,On,2005-06-17 00:00:00.000,NULL,907,39894,39894,295-555-0161,295-555-0161,"Downtown,Osaka, Japan","Downtown,Osaka, Japan",NULL,80,480,2009-06-18 00:00:00.000
271,722,284,Store,Contoso Nagoya Store,Contoso Nagoya Store,On,2008-08-18 00:00:00.000,NULL,908,40175,40175,719-555-0181,719-555-0181,"North district  Nagoya,Japan ","North district  Nagoya,Japan ",NULL,50,480,2009-06-16 00:00:00.000
272,725,285,Store,Contoso Sapporo Store,Contoso Sapporo Store,On,2007-08-20 00:00:00.000,NULL,909,39864,39864,125-555-0196,125-555-0196,sapporo Hokkaido northwest district,sapporo Hokkaido northwest district,NULL,50,480,2009-06-17 00:00:00.000
273,719,286,Store,Contoso Kyoto Store,Contoso Kyoto Store,On,2009-09-02 00:00:00.000,NULL,910,NULL,NULL,473-555-0117,473-555-0117,Kyoto centre district,Kyoto centre district,NULL,50,480,2009-06-16 00:00:00.000
274,726,287,Store,Contoso Seoul Store,Contoso Seoul Store,On,2008-10-13 00:00:00.000,NULL,911,57,57,370-555-0163,370-555-0163,"Seoul west district ","Seoul west district ",NULL,50,480,2009-06-17 00:00:00.000
275,712,288,Store,Contoso Busan Store,Contoso Busan Store,On,2006-07-12 00:00:00.000,NULL,912,NULL,NULL,465-555-0156,465-555-0156,"Korea Citycenter Namchendong, Suyeong-Gu, Busan","Korea Citycenter Namchendong, Suyeong-Gu, Busan",NULL,50,480,2009-06-18 00:00:00.000
276,711,289,Store,Contoso Bishkek Store,Contoso Bishkek Store,On,2006-08-13 00:00:00.000,NULL,913,720005,720005,238-555-0197,238-555-0197,"Biskek shopping mall, Chuskaya Oblast Kyrgyzstan ","Biskek shopping mall, Chuskaya Oblast Kyrgyzstan ",NULL,50,480,2009-06-16 00:00:00.000
277,727,290,Store,Contoso Shanghai No.1 Store,Contoso Shanghai No.1 Store,On,2004-02-14 00:00:00.000,NULL,849,201800,201800,708-555-0141,708-555-0141,"China Shanghai, Jiading Distrct Yongguang Rd","China Shanghai, Jiading Distrct Yongguang Rd",NULL,95,480,2009-06-18 00:00:00.000
278,733,291,Store,Contoso Urumqi Store,Contoso Urumqi Store,On,2005-07-15 00:00:00.000,NULL,850,830000,830000,970-555-0138,970-555-0138,"Ulaanbaatar, Ulaanbaatar Mongolia","Ulaanbaatar, Ulaanbaatar Mongolia",NULL,50,480,2009-06-16 00:00:00.000
279,710,292,Store,Contoso Beijing Store,Contoso Beijing Store,On,2008-07-16 00:00:00.000,NULL,851,100007,100007,486-555-0150,486-555-0150,China Beijing Chaoyang distrct Shanlitun Rd,China Beijing Chaoyang distrct Shanlitun Rd,NULL,86,480,2009-06-17 00:00:00.000
280,715,293,Store,Contoso Guangzhou Store,Contoso Guangzhou Store,On,2009-07-17 00:00:00.000,NULL,852,510000,510000,124-555-0114,124-555-0114,"China Guangzhou, Guangdong Tianhe Distrct ","China Guangzhou, Guangdong Tianhe Distrct ",NULL,131,480,2009-06-18 00:00:00.000
281,727,290,Store,Contoso Shanghai No.2 Store,Contoso Shanghai No.2 Store,On,2004-03-02 00:00:00.000,NULL,853,201800,201800,716-555-0127,716-555-0127,"China Shanghai, Jiading Distrct Yongguang Rd","China Shanghai, Jiading Distrct Yongguang Rd",NULL,95,480,2009-06-18 00:00:00.000
282,903,214,Store,Contoso Ottawa No.1 Store,ContosoOttawa No.1 Store,On,2004-04-09 00:00:00.000,NULL,914,NULL,NULL,210-555-0193,210-555-0193,"Elgin Street, Ottawa,  Canada","Elgin Street, Ottawa,  Canada",NULL,95,480,2009-06-18 01:00:00.000
283,903,214,Store,Contoso Ottawa No.2 Store,ContosoOttawa No.2 Store,On,2004-05-15 00:00:00.000,NULL,915,NULL,NULL,210-555-0193,210-555-0193,"Carling Avenue, Ottawa, Canada","Carling Avenue, Ottawa, Canada",NULL,95,480,2009-06-18 02:00:00.000
284,942,215,Store,Contoso Toronto No.1 Store,Contoso Toronto No.1 Store,On,2004-06-17 00:00:00.000,NULL,916,NULL,NULL,210-555-0193,210-555-0193,"George St, Toronto, Canada","George St, Toronto, Canada",NULL,95,480,2009-06-18 03:00:00.000
285,942,215,Store,Contoso Toronto No.2 Store,Contoso Toronto No.2 Store,On,2003-07-29 00:00:00.000,NULL,917,NULL,NULL,257-555-0154,257-555-0154,"Chestnut Street, Toronto, Canada","Chestnut Street, Toronto, Canada",NULL,95,480,2009-06-18 04:00:00.000
286,942,215,Store,Contoso Toronto No.3 Store,Contoso Toronto No.3 Store,On,2004-08-20 00:00:00.000,NULL,918,NULL,NULL,883-555-0116,883-555-0116," Dundas Street East, Toronto, Canada"," Dundas Street East, Toronto, Canada",NULL,95,480,2009-06-18 05:00:00.000
287,881,216,Store,Contoso Montreal No.1 Store,Contoso Montreal No.1 Store,On,2004-09-12 00:00:00.000,NULL,919,NULL,NULL,517-555-0117,517-555-0117,"Boulevard Decarie, Montreal Rd, Canada","Boulevard Decarie, Montreal Rd, Canada",NULL,95,480,2009-06-18 06:00:00.000
288,881,216,Store,Contoso Montreal No.2 Store,Contoso Montreal No.2 Store,On,2003-02-13 00:00:00.000,NULL,920,NULL,NULL,922-555-0165,922-555-0165,"De avenue du parc Shopping mall, Montréal, Canada","De avenue du parc Shopping mall, Montréal, Canada",NULL,95,480,2009-06-18 07:00:00.000
289,562,217,Store,Contoso Vancouver  No.1 Store,Contoso Vancouver  No.1 Store,On,2004-11-25 00:00:00.000,NULL,921,NULL,NULL,664-555-0112,664-555-0112,"Burrard Street, Vancouver, Canada","Burrard Street, Vancouver, Canada",NULL,95,480,2009-06-18 08:00:00.000
290,562,217,Store,Contoso Vancouver  No.2 Store,Contoso Vancouver  No.2 Store,On,2004-12-26 00:00:00.000,NULL,922,NULL,NULL,340-555-0193,340-555-0193,"Johnston Street, Vancouver, Canada","Johnston Street, Vancouver, Canada",NULL,95,480,2009-06-18 09:00:00.000
291,598,218,Store,Contoso Calgary  Store,Contoso Calgary  Store,On,2004-05-27 00:00:00.000,NULL,923,NULL,NULL,330-555-0120,330-555-0120,"209 4 Avenue Se, Calgary, Canada","209 4 Avenue Se, Calgary, Canada",NULL,95,480,2009-06-18 10:00:00.000
292,731,272,Store,Contoso Thimphu No.2 Store,Contoso Thimphu No.2 Store,On,2006-02-28 00:00:00.000,NULL,924,NULL,NULL,185-555-0169,185-555-0169,"Clock Tower Shooping mall, Thimphu, Bhutan","Clock Tower Shooping mall, Thimphu, Bhutan",NULL,95,480,2009-06-18 11:00:00.000
293,716,273,Store,Contoso Hong Kong No.2 Store,Contoso Hong Kong No.2 Store,On,2007-03-29 00:00:00.000,NULL,925,NULL,NULL,740-555-0182,740-555-0182,"Hong Kong, Kowloon Shopping mall","Hong Kong, Kowloon Shopping mall",NULL,95,480,2009-06-18 12:00:00.000
294,730,274,Store,Contoso Tehran No.2 Store,Contoso Tehran No.2 Store,On,2004-04-30 00:00:00.000,NULL,926,1698556,1698565,775-555-0164,775-555-0164,"Seyfiyeh Davoodiyeh,second street, Tehran, Tehran, Iran","Seyfiyeh Davoodiyeh,second street, Tehran, Tehran, Iran",NULL,95,480,2009-06-18 13:00:00.000
295,714,275,Store,Contoso Damascus No.2 Store,Contoso Damascus No.2 Store,On,2004-05-31 00:00:00.000,NULL,927,36805,36805,1 (11) 500 555-,1 (11) 500 555,"19th Nissan Street, Mezze Damascus, Syria","19th Nissan Street, Mezze Damascus, Syria",NULL,95,480,2009-06-18 14:00:00.000
296,709,276,Store,Contoso Bangkok No.2 Store,Contoso Bangkok No.2 Store,On,2005-06-01 00:00:00.000,NULL,928,15210,15210,1 (11) 500 555-,1 (11) 500 555,"Bangkok Citycenter, Thailand","Bangkok Citycenter, Thailand",NULL,95,480,2009-06-18 15:00:00.000
297,764,277,Store,Contoso Moscow  No.2 Store,Contoso Moscow  No.2 Store,On,2004-07-02 00:00:00.000,NULL,929,107561,107561,615-555-0153,615-555-0153,"Russia, 107561 District shopping mall","Russia, 107561 District shopping mall",NULL,95,480,2009-06-18 16:00:00.000
298,708,278,Store,Contoso Ashgabat  No.2 Store,Contoso Ashgabat  No.2 Store,On,2006-11-06 00:00:00.000,NULL,930,789000,789000,926-555-0182,926-555-0182,"West Street, Turkmenistan","West Street, Turkmenistan",NULL,95,480,2009-06-18 17:00:00.000
299,717,279,Store,Contoso Islamabad  No.2 Store,Contoso Islamabad  No.2 Store,On,2007-12-07 00:00:00.000,NULL,931,15890,15890,1 (11) 500 555-,1 (11) 500 555,"Citycenter, Islamabad Capital Territory, Pakistan","Citycenter, Islamabad Capital Territory, Pakistan",NULL,95,480,2009-06-18 18:00:00.000
300,558,294,Store,Contoso Sydney  No.2 Store,Contoso Sydney  No.2 Store,On,2004-03-18 00:00:00.000,NULL,932,59000,60000,1 (11) 500 555-,1 (11) 500 555," PT St Sydney, Australia"," PT St Sydney, Australia",NULL,95,480,2009-06-18 19:00:00.000
301,724,283,Store,Contoso Osaka No.2 Store,Contoso Osaka No.2 Store,On,2007-03-19 00:00:00.000,NULL,933,89094,89094,380-558-0193,380-558-0193,"Citycenter, BigOne Rd-KuOsakaOsaka, Japan","Citycenter, BigOne Rd-KuOsakaOsaka, Japan",NULL,95,480,2009-06-18 20:00:00.000
302,729,24,Store,Contoso Taipei  Store,Contoso Taipei  Store,On,2004-07-19 00:00:00.000,NULL,935,109807,109807,830-555-0128,830-555-0128,"Leidui Shopping mall, Taipei, Taiwan","Leidui Shopping mall, Taipei, Taiwan",NULL,95,480,2009-06-18 21:00:00.000
303,757,25,Store,Contoso Lisbon Store,Contoso Lisbon Store,On,2004-09-20 00:00:00.000,NULL,936,189076,189076,290-666-8960,290-666-8960,"Lisbon Citycenter, Lisboa Region","Lisbon Citycenter, Lisboa Region",NULL,95,480,2009-06-18 22:00:00.000
304,772,14,Store,Contoso Saint Petersburg Store,Contoso Saint Petersburg Store,On,2004-06-07 00:00:00.000,NULL,942,2014522,2014522,510-555-0118,517-555-0118,"Saint Petersburg  Citycenter, Shopping mall","Saint Petersburg  Citycenter, Shopping mall",NULL,95,480,2009-06-19 00:00:00.000
305,768,15,Store,Contoso Nizhny Novgorod Store,Contoso Nizhny Novgorod Store,On,2004-03-15 00:00:00.000,NULL,944,147820,147820,511-555-0119,511-555-0119,"Nizhny Novgorod  Downtown, Shopping mall","Nizhny Novgorod  Downtown, Shopping mall",NULL,95,480,2009-06-20 00:00:00.000
306,586,246,Online,Contoso Europe Online Store,Contoso Europe Online Store,On,2004-09-03 00:00:00.000,NULL,945,10178,10178,731-555-0117,731-555-0117,"Downtown Berlin, Germany","Downtown Berlin, Germany",NULL,7,1000,2009-06-18 00:00:00.000
307,710,292,Online,Contoso Asia Online Store,Contoso Asia Online Store,On,2004-10-11 00:00:00.000,NULL,946,10093,10093,55-555-0117,55-555-0117,China Beijing Chaoyang distrct Shanlitun Rd,China Beijing Chaoyang distrct Shanlitun Rd,NULL,8,93800,2009-06-18 00:00:00.000
308,693,35,Reseller,Contoso North America Reseller,Contoso North America Reseller,On,2004-03-08 00:00:00.000,NULL,947,56535,56535,55-555-0118,55-555-0118,Seattle Shopping Mall,Seattle Shopping Mall,NULL,15,450,2008-06-05 00:00:00.000
309,529,233,Reseller,Contoso Europe Reseller,Contoso Europe Reseller,On,2004-05-07 00:00:00.000,NULL,948,535455,535455,55-555-0119,55-555-0119,France Shopping Mall,France Shopping Mall,NULL,12,551,2008-06-05 00:00:00.000
310,710,292,Reseller,Contoso Asia Reseller,Contoso Asia Reseller,On,2004-07-15 00:00:00.000,NULL,949,25536,25536,55-555-0120,55-555-0120,Beijing Shopping Mall,Beijing Shopping Mall,NULL,17,93800,2008-11-05 00:00:00.000
